[
    {
        "Altitude(m)": 707975.9824526747,
        "Argument of Periapsis(deg)": 0.004556048474650827,
        "Eccentricity": 0.0,
        "Inclination(deg)": 45.0,
        "Latitude(deg)": -19.61477776524568,
        "Longitude(deg)": 28.948486356453344,
        "Mean Anomaly(deg)": -28.11401334100767,
        "RAAN(deg)": 149.99569922341672,
        "Satellite Name": "Constellation 1 680",
        "Satellite Number": 680,
        "Semi-Major Axis(m)": 7083131.272910544,
        "Time(s)": 76
    },
    {
        "Altitude(m)": 707962.9519478631,
        "Argument of Periapsis(deg)": 0.004615996480896233,
        "Eccentricity": 0.0,
        "Inclination(deg)": 45.0,
        "Latitude(deg)": -19.57444673325689,
        "Longitude(deg)": 28.99258021942788,
        "Mean Anomaly(deg)": -28.05331220075771,
        "RAAN(deg)": 149.99564263425114,
        "Satellite Name": "Constellation 1 680",
        "Satellite Number": 680,
        "Semi-Major Axis(m)": 7083131.272910544,
        "Time(s)": 77
    },
    {
        "Altitude(m)": 707949.9300394497,
        "Argument of Periapsis(deg)": 0.004675944487141638,
        "Eccentricity": 0.0,
        "Inclination(deg)": 45.0,
        "Latitude(deg)": -19.53410255888557,
        "Longitude(deg)": 29.03665022657298,
        "Mean Anomaly(deg)": -27.992611060507976,
        "RAAN(deg)": 149.9955860450856,
        "Satellite Name": "Constellation 1 680",
        "Satellite Number": 680,
        "Semi-Major Axis(m)": 7083131.272910544,
        "Time(s)": 78
    },
    {
        "Altitude(m)": 707936.9167694717,
        "Argument of Periapsis(deg)": 0.004735892493387044,
        "Eccentricity": 0.0,
        "Inclination(deg)": 45.0,
        "Latitude(deg)": -19.49374527724525,
        "Longitude(deg)": 29.080696435385814,
        "Mean Anomaly(deg)": -27.931909920257983,
        "RAAN(deg)": 149.99552945592,
        "Satellite Name": "Constellation 1 680",
        "Satellite Number": 680,
        "Semi-Major Axis(m)": 7083131.272910544,
        "Time(s)": 79
    },
    {
        "Altitude(m)": 707923.9121799114,
        "Argument of Periapsis(deg)": 0.004795840499632449,
        "Eccentricity": 0.0,
        "Inclination(deg)": 45.0,
        "Latitude(deg)": -19.453374923403427,
        "Longitude(deg)": 29.12471890333481,
        "Mean Anomaly(deg)": -27.871208780008047,
        "RAAN(deg)": 149.99547286675445,
        "Satellite Name": "Constellation 1 680",
        "Satellite Number": 680,
        "Semi-Major Axis(m)": 7083131.272910544,
        "Time(s)": 80
    },
    {
        "Altitude(m)": 707910.9163127041,
        "Argument of Periapsis(deg)": 0.004855788505877855,
        "Eccentricity": 0.0,
        "Inclination(deg)": 45.0,
        "Latitude(deg)": -19.41299153238119,
        "Longitude(deg)": 29.16871768786046,
        "Mean Anomaly(deg)": -27.81050763975819,
        "RAAN(deg)": 149.9954162775889,
        "Satellite Name": "Constellation 1 680",
        "Satellite Number": 680,
        "Semi-Major Axis(m)": 7083131.272910544,
        "Time(s)": 81
    },
    {
        "Altitude(m)": 707897.9292097323,
        "Argument of Periapsis(deg)": 0.00491573651212326,
        "Eccentricity": 0.0,
        "Inclination(deg)": 45.0,
        "Latitude(deg)": -19.372595139153507,
        "Longitude(deg)": 29.212692678278124,
        "Mean Anomaly(deg)": -27.749806499508303,
        "RAAN(deg)": 149.9953596884233,
        "Satellite Name": "Constellation 1 680",
        "Satellite Number": 680,
        "Semi-Major Axis(m)": 7083131.272910544,
        "Time(s)": 82
    },
    {
        "Altitude(m)": 707884.9509128415,
        "Argument of Periapsis(deg)": 0.004975684518368666,
        "Eccentricity": 0.0,
        "Inclination(deg)": 45.0,
        "Latitude(deg)": -19.33218577864849,
        "Longitude(deg)": 29.256644268165815,
        "Mean Anomaly(deg)": -27.689105359258363,
        "RAAN(deg)": 149.99530309925774,
        "Satellite Name": "Constellation 1 680",
        "Satellite Number": 680,
        "Semi-Major Axis(m)": 7083131.272910544,
        "Time(s)": 83
    },
    {
        "Altitude(m)": 707871.9814638142,
        "Argument of Periapsis(deg)": 0.005035632524614072,
        "Eccentricity": 0.0,
        "Inclination(deg)": 45.0,
        "Latitude(deg)": -19.291763485749193,
        "Longitude(deg)": 29.300572346781987,
        "Mean Anomaly(deg)": -27.628404219008477,
        "RAAN(deg)": 149.99524651009216,
        "Satellite Name": "Constellation 1 680",
        "Satellite Number": 680,
        "Semi-Major Axis(m)": 7083131.272910544,
        "Time(s)": 84
    },
    {
        "Altitude(m)": 707859.0209044047,
        "Argument of Periapsis(deg)": 0.0050955805308594785,
        "Eccentricity": 0.0,
        "Inclination(deg)": 45.0,
        "Latitude(deg)": -19.251328295292407,
        "Longitude(deg)": 29.34447697145381,
        "Mean Anomaly(deg)": -27.567703078758644,
        "RAAN(deg)": 149.9951899209266,
        "Satellite Name": "Constellation 1 680",
        "Satellite Number": 680,
        "Semi-Major Axis(m)": 7083131.272910544,
        "Time(s)": 85
    },
    {
        "Altitude(m)": 707846.0692762948,
        "Argument of Periapsis(deg)": 0.005155528537104883,
        "Eccentricity": 0.0,
        "Inclination(deg)": 45.0,
        "Latitude(deg)": -19.21088024206911,
        "Longitude(deg)": 29.388358199480127,
        "Mean Anomaly(deg)": -27.507001938508676,
        "RAAN(deg)": 149.99513333176105,
        "Satellite Name": "Constellation 1 680",
        "Satellite Number": 680,
        "Semi-Major Axis(m)": 7083131.272910544,
        "Time(s)": 86
    },
    {
        "Altitude(m)": 707833.1266211374,
        "Argument of Periapsis(deg)": 0.0052154765433502885,
        "Eccentricity": 0.0,
        "Inclination(deg)": 45.0,
        "Latitude(deg)": -19.17041936082475,
        "Longitude(deg)": 29.432216088131007,
        "Mean Anomaly(deg)": -27.446300798258715,
        "RAAN(deg)": 149.99507674259544,
        "Satellite Name": "Constellation 1 680",
        "Satellite Number": 680,
        "Semi-Major Axis(m)": 7083131.272910544,
        "Time(s)": 87
    },
    {
        "Altitude(m)": 707820.1929805212,
        "Argument of Periapsis(deg)": 0.005275424549595694,
        "Eccentricity": 0.0,
        "Inclination(deg)": 45.0,
        "Latitude(deg)": -19.12994568625929,
        "Longitude(deg)": 29.47605069464783,
        "Mean Anomaly(deg)": -27.385599658008857,
        "RAAN(deg)": 149.9950201534299,
        "Satellite Name": "Constellation 1 680",
        "Satellite Number": 680,
        "Semi-Major Axis(m)": 7083131.272910544,
        "Time(s)": 88
    },
    {
        "Altitude(m)": 707807.268395997,
        "Argument of Periapsis(deg)": 0.0053353725558411,
        "Eccentricity": 0.0,
        "Inclination(deg)": 45.0,
        "Latitude(deg)": -19.08945925302739,
        "Longitude(deg)": 29.519861908146552,
        "Mean Anomaly(deg)": -27.32489851775902,
        "RAAN(deg)": 149.99496356426434,
        "Satellite Name": "Constellation 1 680",
        "Satellite Number": 680,
        "Semi-Major Axis(m)": 7083131.272910544,
        "Time(s)": 89
    },
    {
        "Altitude(m)": 707794.3529090642,
        "Argument of Periapsis(deg)": 0.005395320562086505,
        "Eccentricity": 0.0,
        "Inclination(deg)": 45.0,
        "Latitude(deg)": -19.04896009573759,
        "Longitude(deg)": 29.563650122005388,
        "Mean Anomaly(deg)": -27.26419737750913,
        "RAAN(deg)": 149.99490697509876,
        "Satellite Name": "Constellation 1 680",
        "Satellite Number": 680,
        "Semi-Major Axis(m)": 7083131.272910544,
        "Time(s)": 90
    },
    {
        "Altitude(m)": 707781.4465611669,
        "Argument of Periapsis(deg)": 0.00545526856833191,
        "Eccentricity": 0.0,
        "Inclination(deg)": 45.0,
        "Latitude(deg)": -19.00844824895411,
        "Longitude(deg)": 29.6074152252828,
        "Mean Anomaly(deg)": -27.20349623725917,
        "RAAN(deg)": 149.99485038593318,
        "Satellite Name": "Constellation 1 680",
        "Satellite Number": 680,
        "Semi-Major Axis(m)": 7083131.272910544,
        "Time(s)": 91
    },
    {
        "Altitude(m)": 707768.5493937077,
        "Argument of Periapsis(deg)": 0.005515216574577317,
        "Eccentricity": 0.0,
        "Inclination(deg)": 45.0,
        "Latitude(deg)": -18.967923747195925,
        "Longitude(deg)": 29.651157275105234,
        "Mean Anomaly(deg)": -27.142795097009312,
        "RAAN(deg)": 149.9947937967676,
        "Satellite Name": "Constellation 1 680",
        "Satellite Number": 680,
        "Semi-Major Axis(m)": 7083131.272910544,
        "Time(s)": 92
    },
    {
        "Altitude(m)": 707755.6614480306,
        "Argument of Periapsis(deg)": 0.005575164580822722,
        "Eccentricity": 0.0,
        "Inclination(deg)": 45.0,
        "Latitude(deg)": -18.927386624936876,
        "Longitude(deg)": 29.694876328570494,
        "Mean Anomaly(deg)": -27.082093956759344,
        "RAAN(deg)": 149.99473720760204,
        "Satellite Name": "Constellation 1 680",
        "Satellite Number": 680,
        "Semi-Major Axis(m)": 7083131.272910544,
        "Time(s)": 93
    },
    {
        "Altitude(m)": 707742.782765436,
        "Argument of Periapsis(deg)": 0.005635112587068129,
        "Eccentricity": 0.0,
        "Inclination(deg)": 45.0,
        "Latitude(deg)": -18.88683691660611,
        "Longitude(deg)": 29.738572442747223,
        "Mean Anomaly(deg)": -27.02139281650951,
        "RAAN(deg)": 149.9946806184365,
        "Satellite Name": "Constellation 1 680",
        "Satellite Number": 680,
        "Semi-Major Axis(m)": 7083131.272910544,
        "Time(s)": 94
    }
]